[{"OBJECT_NAME":"BRITE-CA1 (TORONTO)","OBJECT_ID":"2014-033L","EPOCH":"2026-03-09T21:37:14.244384","MEAN_MOTION":14.72464239,"ECCENTRICITY":0.00779067,"INCLINATION":97.9564,"RA_OF_ASC_NODE":199.7641,"ARG_OF_PERICENTER":234.2245,"MEAN_ANOMALY":125.1703,"EPHEMERIS_TYPE":0,"CLASSIFICATION_TYPE":"U","NORAD_CAT_ID":40020,"ELEMENT_SET_NO":999,"REV_AT_EPOCH":62760,"BSTAR":0.00026709929,"MEAN_MOTION_DOT":1.723e-5,"MEAN_MOTION_DDOT":0},{"OBJECT_NAME":"FENGYUN 1C DEB","OBJECT_ID":"1999-025XH","EPOCH":"2026-03-09T04:51:00.300384","MEAN_MOTION":14.6314889,"ECCENTRICITY":0.00290278,"INCLINATION":99.1016,"RA_OF_ASC_NODE":265.8881,"ARG_OF_PERICENTER":248.0256,"MEAN_ANOMALY":111.7857,"EPHEMERIS_TYPE":0,"CLASSIFICATION_TYPE":"U","NORAD_CAT_ID":30248,"ELEMENT_SET_NO":999,"REV_AT_EPOCH":98691,"BSTAR":0.0041627433,"MEAN_MOTION_DOT":0.00021545,"MEAN_MOTION_DDOT":0}]
